METEOR-M2 2             
1 44387U 19038A   23125.37393313  .00000082  00000+0  55386-4 0  9992
2 44387  98.7712  89.3714 0002390  72.3830 287.7614 14.23777971199216
FENGYUN 3E              
1 49008U 21062A   23125.37285277  .00000043  00000+0  41239-4 0  9995
2 49008  98.7221 127.4192 0002473 108.8287 251.3162 14.19678342 94994
GOES 18                 
1 51850U 22021A   23125.03521362  .00000112  00000+0  00000+0 0  9993
2 51850   0.0046  42.0280 0000461  13.6848  42.6242  1.00272688  4387
NOAA 21 (JPSS-2)        
1 54234U 22150A   23124.86107583  .00000141  00000+0  87475-4 0  9998
2 54234  98.7144  63.4966 0001091 103.0686 257.0612 14.19538993 24902
METEOSAT-12             
1 54743U 22170C   23124.94146779 -.00000018  00000+0  00000+0 0  9992
2 54743   0.6822 306.7502 0003321 109.9676 141.1355  1.00271634  1558
APRIZESAT 2             
1 28366U 04025A   23124.86155556  .00000275  00000+0  99678-4 0  9995
2 28366  98.1221 341.8267 0108571  87.8858 273.4758 14.36994137987970
SAUDICOMSAT 1           
1 28369U 04025D   23124.89935510  .00000629  00000+0  16222-3 0  9993
2 28369  98.4887  94.4641 0031913 271.1739  88.5800 14.53230238998522
SAUDICOMSAT 2           
1 28370U 04025E   23124.89673424  .00000553  00000+0  15822-3 0  9999
2 28370  98.5806  94.2899 0058499 107.9211 252.8372 14.48068368995140
APRIZESAT 1             
1 28372U 04025G   23124.91100694  .00000558  00000+0  15391-3 0  9994
2 28372  98.5420  94.1657 0046465  19.0598 341.2321 14.50121403996686
NANOSAT-1               
1 28493U 04049B   23125.27684028  .00001368  00000+0  21172-3 0  9996
2 28493  98.1194 231.5610 0004107   3.3423 356.7812 14.74862951987299
SAUDICOMSAT 7           
1 31119U 07012C   23125.09085330  .00000772  00000+0  15746-3 0  9997
2 31119  98.2263  73.7396 0059456 163.1107 197.2092 14.62694516855765
SAUDICOMSAT 6           
1 31121U 07012E   23125.06657946  .00000772  00000+0  16726-3 0  9994
2 31121  98.2635  68.8910 0074190 272.5193  86.7515 14.59432765853919
SAUDICOMSAT 5           
1 31124U 07012H   23125.11672789  .00001006  00000+0  19570-3 0  9996
2 31124  98.1962  75.0596 0052068 106.7581 253.9344 14.64464323856724
SAUDICOMSAT 3           
1 31125U 07012J   23124.83660108  .00001348  00000+0  24952-3 0  9996
2 31125  98.1625  75.9045 0043591  51.9761 308.5365 14.66388165857598
SAUDICOMSAT 4           
1 31127U 07012L   23124.80797447  .00000692  00000+0  14632-3 0  9997
2 31127  98.2480  71.9240 0066174 215.5374 144.1410 14.61192713854794
APRIZESAT 4             
1 35684U 09041D   23125.07569507  .00001138  00000+0  15425-3 0  9994
2 35684  98.2877 154.5009 0047102  40.8702 319.6025 14.80283313742684
APRIZESAT 3             
1 35686U 09041F   23124.85968413  .00001937  00000+0  20305-3 0  9990
2 35686  98.0961 223.6472 0069898 214.2851 145.3844 14.89038003746419
AISSAT 1                
1 36797U 10035C   23125.09634915  .00002601  00000+0  28568-3 0  9991
2 36797  98.2300 326.1614 0010284 196.0563 164.0329 14.88561835694399
S-NET D                 
1 43186U 18014G   23124.69883357  .00003585  00000+0  29118-3 0  9991
2 43186  97.6446  29.2971 0011413 311.6871  48.3375 15.00200260287033
S-NET B                 
1 43187U 18014H   23124.69964507  .00003453  00000+0  28064-3 0  9992
2 43187  97.6438  29.2327 0011506 310.2180  49.8036 15.00191755287039
S-NET A                 
1 43188U 18014J   23125.30013969  .00003440  00000+0  27957-3 0  9995
2 43188  97.6442  29.9069 0011529 308.0451  51.9732 15.00198351287122
S-NET C                 
1 43189U 18014K   23125.30189564  .00003251  00000+0  26461-3 0  9990
2 43189  97.6426  29.8087 0011710 304.7103  55.3017 15.00183325285670
SALSAT                  
1 46495U 20068K   23124.84457062  .00004697  00000+0  31453-3 0  9996
2 46495  97.7680  72.4107 0013578 267.3082  92.6591 15.07341887142542
